2022-023A               
1 51946U 22023A   26066.38437076  .00004303  00000+0  19500-3 0  9999
2 51946  63.4765 256.0240 0098533 341.4326  18.3199 15.18202647222269
STARLINK-32234          
1 60414U 24141S   26068.72228229 -.00002255  00000+0 -64044-4 0  9990
2 60414  53.1586 242.5761 0001170  74.9610 285.1520 15.30197521 89585
