[{"OBJECT_NAME":"OBJECT A","OBJECT_ID":"2022-023A","EPOCH":"2026-03-07T09:13:29.633664","MEAN_MOTION":15.18202647,"ECCENTRICITY":0.00985337,"INCLINATION":63.4765,"RA_OF_ASC_NODE":256.024,"ARG_OF_PERICENTER":341.4326,"MEAN_ANOMALY":18.3199,"EPHEMERIS_TYPE":0,"CLASSIFICATION_TYPE":"U","NORAD_CAT_ID":51946,"ELEMENT_SET_NO":999,"REV_AT_EPOCH":22226,"BSTAR":0.00019500419,"MEAN_MOTION_DOT":4.303e-5,"MEAN_MOTION_DDOT":0},{"OBJECT_NAME":"STARLINK-32234","OBJECT_ID":"2024-141S","EPOCH":"2026-03-09T17:20:05.190720","MEAN_MOTION":15.30197521,"ECCENTRICITY":0.00011697,"INCLINATION":53.1586,"RA_OF_ASC_NODE":242.5761,"ARG_OF_PERICENTER":74.961,"MEAN_ANOMALY":285.152,"EPHEMERIS_TYPE":0,"CLASSIFICATION_TYPE":"U","NORAD_CAT_ID":60414,"ELEMENT_SET_NO":999,"REV_AT_EPOCH":8958,"BSTAR":-6.4043948e-5,"MEAN_MOTION_DOT":-2.255e-5,"MEAN_MOTION_DDOT":0}]
